[{"OBJECT_NAME":"CELESTIS-17 & SHERPA-FX1","OBJECT_ID":"2021-006CB","EPOCH":"2026-03-09T15:26:05.078112","MEAN_MOTION":15.30994801,"ECCENTRICITY":0.000663,"INCLINATION":97.2397,"RA_OF_ASC_NODE":112.1052,"ARG_OF_PERICENTER":178.1385,"MEAN_ANOMALY":181.9882,"EPHEMERIS_TYPE":0,"CLASSIFICATION_TYPE":"U","NORAD_CAT_ID":47486,"ELEMENT_SET_NO":999,"REV_AT_EPOCH":28406,"BSTAR":0.00024301,"MEAN_MOTION_DOT":7.207e-5,"MEAN_MOTION_DDOT":0},{"OBJECT_NAME":"STARLINK-2491","OBJECT_ID":"2021-027BJ","EPOCH":"2026-03-09T13:59:29.224032","MEAN_MOTION":15.30224895,"ECCENTRICITY":0.0001646,"INCLINATION":53.1618,"RA_OF_ASC_NODE":165.9297,"ARG_OF_PERICENTER":49.2729,"MEAN_ANOMALY":310.8414,"EPHEMERIS_TYPE":0,"CLASSIFICATION_TYPE":"U","NORAD_CAT_ID":48148,"ELEMENT_SET_NO":999,"REV_AT_EPOCH":27248,"BSTAR":0.00035873,"MEAN_MOTION_DOT":0.00010288,"MEAN_MOTION_DDOT":0}]
