CELESTIS-17 & SHERPA-FX1
1 47486U 21006CB  26068.64311433  .00007207  00000+0  24301-3 0  9993
2 47486  97.2397 112.1052 0006630 178.1385 181.9882 15.30994801284065
STARLINK-2491           
1 48148U 21027BJ  26068.58297713  .00010288  00000+0  35873-3 0  9998
2 48148  53.1618 165.9297 0001646  49.2729 310.8414 15.30224895272483
